{
  "norad_id": 54652,
  "name": "ONEWEB-0585",
  "history": [
    {
      "epoch": "2026-03-28T17:19:33.428352Z",
      "apogee_km": 1179.094951461282,
      "perigee_km": 1176.411099324263,
      "latitude_deg": -3.2554048067601874e-05,
      "longitude_deg": 173.97862658733106,
      "height_km": 1180.6917069649646,
      "semi_major_axis_km": 7555.890025392772,
      "eccentricity": 0.0001776,
      "inclination_deg": 87.9171,
      "raan_deg": 260.0062,
      "arg_perigee_deg": 91.5775,
      "mean_anomaly_deg": 268.5562,
      "mean_motion_rev_day": 13.2182609
    },
    {
      "epoch": "2026-03-29T04:13:34.435200Z",
      "apogee_km": 1179.0972420069838,
      "perigee_km": 1176.4073454184227,
      "latitude_deg": 2.302989580638158e-05,
      "longitude_deg": 9.935974800084155,
      "height_km": 1180.6938251855088,
      "semi_major_axis_km": 7555.889293712703,
      "eccentricity": 0.000178,
      "inclination_deg": 87.9172,
      "raan_deg": 259.9154,
      "arg_perigee_deg": 91.696,
      "mean_anomaly_deg": 268.4378,
      "mean_motion_rev_day": 13.21826282
    },
    {
      "epoch": "2026-03-30T03:50:36.598848Z",
      "apogee_km": 1179.0956469758876,
      "perigee_km": 1176.4087727728574,
      "latitude_deg": -5.2486324586010425e-05,
      "longitude_deg": 14.510430752703618,
      "height_km": 1180.698107877461,
      "semi_major_axis_km": 7555.889209874373,
      "eccentricity": 0.0001778,
      "inclination_deg": 87.9173,
      "raan_deg": 259.7188,
      "arg_perigee_deg": 91.8835,
      "mean_anomaly_deg": 268.2502,
      "mean_motion_rev_day": 13.21826304
    },
    {
      "epoch": "2026-03-30T11:06:37.241856Z",
      "apogee_km": 1179.0921226274131,
      "perigee_km": 1176.4106889499662,
      "latitude_deg": -1.1493884474757793e-05,
      "longitude_deg": -94.85118534528746,
      "height_km": 1180.6962743071003,
      "semi_major_axis_km": 7555.888405788689,
      "eccentricity": 0.00017744,
      "inclination_deg": 87.9173,
      "raan_deg": 259.6583,
      "arg_perigee_deg": 91.8433,
      "mean_anomaly_deg": 268.2904,
      "mean_motion_rev_day": 13.21826515
    },
    {
      "epoch": "2026-03-30T20:11:38.178240Z",
      "apogee_km": 1179.0811088878118,
      "perigee_km": 1176.4300484176656,
      "latitude_deg": 1.9382594932253545e-05,
      "longitude_deg": 128.44616468245908,
      "height_km": 1180.7009081492424,
      "semi_major_axis_km": 7555.892578652738,
      "eccentricity": 0.00017543,
      "inclination_deg": 87.9173,
      "raan_deg": 259.5826,
      "arg_perigee_deg": 91.8831,
      "mean_anomaly_deg": 268.2504,
      "mean_motion_rev_day": 13.2182542
    },
    {
      "epoch": "2026-03-31T10:43:39.449568Z",
      "apogee_km": 1179.087169565798,
      "perigee_km": 1176.4190336531174,
      "latitude_deg": -1.1430217298451337e-05,
      "longitude_deg": -90.27711011623595,
      "height_km": 1180.6960872734383,
      "semi_major_axis_km": 7555.890101609457,
      "eccentricity": 0.00017656,
      "inclination_deg": 87.9172,
      "raan_deg": 259.4615,
      "arg_perigee_deg": 91.771,
      "mean_anomaly_deg": 268.3626,
      "mean_motion_rev_day": 13.2182607
    },
    {
      "epoch": "2026-04-01T10:20:40.522848Z",
      "apogee_km": 1179.0669822597256,
      "perigee_km": 1176.365009228447,
      "latitude_deg": -7.545099721600829e-05,
      "longitude_deg": -85.69829740455354,
      "height_km": 1180.639908818372,
      "semi_major_axis_km": 7555.852995744086,
      "eccentricity": 0.0001788,
      "inclination_deg": 87.9174,
      "raan_deg": 259.2647,
      "arg_perigee_deg": 90.9405,
      "mean_anomaly_deg": 269.1933,
      "mean_motion_rev_day": 13.21835807
    },
    {
      "epoch": "2026-04-02T20:51:37.194336Z",
      "apogee_km": 1178.8491298293202,
      "perigee_km": 1176.239397520846,
      "latitude_deg": 4.14293720845108e-05,
      "longitude_deg": 114.85876577340775,
      "height_km": 1180.5100711435266,
      "semi_major_axis_km": 7555.681263675083,
      "eccentricity": 0.0001727,
      "inclination_deg": 87.9188,
      "raan_deg": 258.9754,
      "arg_perigee_deg": 92.8066,
      "mean_anomaly_deg": 267.3266,
      "mean_motion_rev_day": 13.21880873
    },
    {
      "epoch": "2026-04-02T22:40:37.082496Z",
      "apogee_km": 1178.8750316266078,
      "perigee_km": 1176.2007760511415,
      "latitude_deg": -5.1170345196370965e-05,
      "longitude_deg": 87.52002190521279,
      "height_km": 1180.5005132983417,
      "semi_major_axis_km": 7555.674903838874,
      "eccentricity": 0.00017697,
      "inclination_deg": 87.9188,
      "raan_deg": 258.9608,
      "arg_perigee_deg": 92.6042,
      "mean_anomaly_deg": 267.5294,
      "mean_motion_rev_day": 13.21882542
    },
    {
      "epoch": "2026-04-03T20:28:34.690656Z",
      "apogee_km": 1178.7607104609833,
      "perigee_km": 1176.1993562866692,
      "latitude_deg": 2.6965921036971344e-06,
      "longitude_deg": 119.45472292605075,
      "height_km": 1180.4390245478564,
      "semi_major_axis_km": 7555.617033373826,
      "eccentricity": 0.0001695,
      "inclination_deg": 87.9178,
      "raan_deg": 258.7808,
      "arg_perigee_deg": 92.5509,
      "mean_anomaly_deg": 267.5819,
      "mean_motion_rev_day": 13.21897729
    },
    {
      "epoch": "2026-04-04T03:44:33.682560Z",
      "apogee_km": 1178.7898887614447,
      "perigee_km": 1176.1016124187863,
      "latitude_deg": 4.501038228120596e-05,
      "longitude_deg": 10.100104802070511,
      "height_km": 1180.4136629845862,
      "semi_major_axis_km": 7555.582750590115,
      "eccentricity": 0.0001779,
      "inclination_deg": 87.9177,
      "raan_deg": 258.7204,
      "arg_perigee_deg": 92.817,
      "mean_anomaly_deg": 267.3168,
      "mean_motion_rev_day": 13.21906726
    },
    {
      "epoch": "2026-04-05T12:26:28.793184Z",
      "apogee_km": 1178.7418327044861,
      "perigee_km": 1176.0782001593125,
      "latitude_deg": 2.581057363267265e-05,
      "longitude_deg": -121.99451072633515,
      "height_km": 1180.3697988620183,
      "semi_major_axis_km": 7555.547016431899,
      "eccentricity": 0.00017627,
      "inclination_deg": 87.918,
      "raan_deg": 258.4483,
      "arg_perigee_deg": 92.491,
      "mean_anomaly_deg": 267.6426,
      "mean_motion_rev_day": 13.21916104
    },
    {
      "epoch": "2026-04-05T23:20:27.185568Z",
      "apogee_km": 1178.7384231612168,
      "perigee_km": 1176.0846122998491,
      "latitude_deg": -1.6157022315581422e-06,
      "longitude_deg": 73.97375711427946,
      "height_km": 1180.3683651847682,
      "semi_major_axis_km": 7555.548517730533,
      "eccentricity": 0.00017562,
      "inclination_deg": 87.9182,
      "raan_deg": 258.3575,
      "arg_perigee_deg": 92.3727,
      "mean_anomaly_deg": 267.7608,
      "mean_motion_rev_day": 13.2191571
    },
    {
      "epoch": "2026-04-07T11:40:21.629280Z",
      "apogee_km": 1178.741437241837,
      "perigee_km": 1176.0728190557738,
      "latitude_deg": -1.444746845009202e-05,
      "longitude_deg": -112.79788969905357,
      "height_km": 1180.3635143697436,
      "semi_major_axis_km": 7555.544128148805,
      "eccentricity": 0.0001766,
      "inclination_deg": 87.9185,
      "raan_deg": 258.0548,
      "arg_perigee_deg": 92.3402,
      "mean_anomaly_deg": 267.7934,
      "mean_motion_rev_day": 13.21916862
    },
    {
      "epoch": "2026-04-07T20:45:20.267424Z",
      "apogee_km": 1178.7373679030443,
      "perigee_km": 1176.0793270498025,
      "latitude_deg": -2.9489984016827035e-05,
      "longitude_deg": 110.50915933870094,
      "height_km": 1180.3721427066519,
      "semi_major_axis_km": 7555.545347476424,
      "eccentricity": 0.0001759,
      "inclination_deg": 87.9186,
      "raan_deg": 257.9792,
      "arg_perigee_deg": 92.6685,
      "mean_anomaly_deg": 267.465,
      "mean_motion_rev_day": 13.21916542
    },
    {
      "epoch": "2026-04-08T09:28:18.334560Z",
      "apogee_km": 1178.7381761466104,
      "perigee_km": 1176.0784730814412,
      "latitude_deg": -4.2655316877365985e-05,
      "longitude_deg": -80.86092204490444,
      "height_km": 1180.3714141599064,
      "semi_major_axis_km": 7555.545324614026,
      "eccentricity": 0.00017601,
      "inclination_deg": 87.9186,
      "raan_deg": 257.8733,
      "arg_perigee_deg": 92.6364,
      "mean_anomaly_deg": 267.4971,
      "mean_motion_rev_day": 13.21916548
    },
    {
      "epoch": "2026-04-09T19:59:19.466880Z",
      "apogee_km": 1179.0015731118128,
      "perigee_km": 1176.1772425805584,
      "latitude_deg": 1.5997653622512024e-05,
      "longitude_deg": 119.68019573717727,
      "height_km": 1180.5593153604186,
      "semi_major_axis_km": 7555.726407846185,
      "eccentricity": 0.0001869,
      "inclination_deg": 87.9182,
      "raan_deg": 257.5867,
      "arg_perigee_deg": 92.7706,
      "mean_anomaly_deg": 267.3642,
      "mean_motion_rev_day": 13.21869026
    }
  ]
}